H1 CPF 01  gfz 2022 09 12 12  7552 terrasarx 
H2 0702601  6201 31698    2022 09 12 12 59 42 2022 09 17 00 00 42   120 1 1  0 0 0
H9
10 0 59836  23022.000000  0    2730941.393  -1084510.026  -6237478.693
10 0 59836  23142.000000  0    1868293.075  -1059480.937  -6551993.206
10 0 59836  23262.000000  0     974011.566  -1000722.935  -6752187.333
10 0 59836  23382.000000  0      64182.237   -908848.315  -6834616.051
10 0 59836  23502.000000  0    -844871.831   -785321.540  -6797861.562
10 0 59836  23622.000000  0   -1736875.564   -632436.474  -6642555.186
10 0 59836  23742.000000  0   -2595887.147   -453274.772  -6371367.376
10 0 59836  23862.000000  0   -3406576.135   -251646.875  -5988965.618
10 0 59836  23982.000000  0   -4154492.742    -32015.924  -5501944.014
10 0 59836  24102.000000  0   -4826326.507    200594.478  -4918720.312
10 0 59836  24222.000000  0   -5410146.550    440706.496  -4249402.099
10 0 59836  24342.000000  0   -5895622.316    682507.867  -3505623.280
10 0 59836  24462.000000  0   -6274217.770    919982.723  -2700350.147
10 0 59836  24582.000000  0   -6539354.228   1147050.305  -1847660.179
10 0 59836  24702.000000  0   -6686537.506   1357708.303   -962497.573
10 0 59836  24822.000000  0   -6713446.817   1546178.108    -60407.762
10 0 59836  24942.000000  0   -6619977.967   1707046.363    842742.786
10 0 59836  25062.000000  0   -6408243.111   1835401.260   1731052.739
10 0 59836  25182.000000  0   -6082526.493   1926959.564   2588874.941
10 0 59836  25302.000000  0   -5649195.873   1978180.389   3401101.140
10 0 59836  25422.000000  0   -5116571.637   1986362.237   4153435.466
10 0 59836  25542.000000  0   -4494758.078   1949721.640   4832649.692
10 0 59836  25662.000000  0   -3795442.537   1867451.800   5426816.029
10 0 59836  25782.000000  0   -3031667.793   1739760.202   5925514.711
10 0 59836  25902.000000  0   -2217581.006   1567884.636   6320013.984
10 0 59836  26022.000000  0   -1368164.316   1354086.324   6603417.282
10 0 59836  26142.000000  0    -498954.946   1101620.903   6770776.503
10 0 59836  26262.000000  0     374239.509    814688.678   6819172.007
10 0 59836  26382.000000  0    1235627.559    498364.268   6747760.159
10 0 59836  26502.000000  0    2069718.042    158507.281   6557787.005
10 0 59836  26622.000000  0    2861597.594   -198345.294   6252568.723
10 0 59836  26742.000000  0    3597198.413   -565103.616   5837438.380
10 0 59836  26862.000000  0    4263551.195   -934263.853   5319657.730
10 0 59836  26982.000000  0    4849018.397  -1298059.990   4708296.301
10 0 59836  27102.000000  0    5343504.582  -1648624.916   4014078.379
10 0 59836  27222.000000  0    5738639.514  -1978157.743   3249198.686
10 0 59836  27342.000000  0    6027929.025  -2279094.856   2427109.107
10 0 59836  27462.000000  0    6206869.370  -2544279.516   1562280.327
10 0 59836  27582.000000  0    6273023.358  -2767125.765    669943.027
10 0 59836  27702.000000  0    6226055.100  -2941773.311   -234187.987
10 0 59836  27822.000000  0    6067722.141  -3063228.606  -1134199.018
10 0 59836  27942.000000  0    5801824.528  -3127488.468  -2014267.524
10 0 59836  28062.000000  0    5434112.214  -3131642.802  -2858947.394
10 0 59836  28182.000000  0    4972155.817  -3073954.504  -3653445.019
10 0 59836  28302.000000  0    4425182.899  -2953915.239  -4383879.987
10 0 59836  28422.000000  0    3803884.745  -2772276.007  -5037526.307
10 0 59836  28542.000000  0    3120197.762  -2531050.970  -5603028.173
10 0 59836  28662.000000  0    2387068.053  -2233496.345  -6070586.991
10 0 59836  28782.000000  0    1618204.168  -1884066.116  -6432121.269
10 0 59836  28902.000000  0     827819.381  -1488343.040  -6681396.707
10 0 59836  29022.000000  0      30370.546  -1052947.878  -6814122.535
10 0 59836  29142.000000  0    -759701.642   -585429.339  -6828016.830
10 0 59836  29262.000000  0   -1528227.819    -94135.876  -6722841.215
10 0 59836  29382.000000  0   -2261558.496    411930.000  -6500404.016
10 0 59836  29502.000000  0   -2946800.683    923272.092  -6164531.940
10 0 59836  29622.000000  0   -3572040.379   1430073.855  -5721011.915
10 0 59836  29742.000000  0   -4126549.840   1922382.297  -5177502.531
10 0 59836  29862.000000  0   -4600975.619   2390300.638  -4543413.548
10 0 59836  29982.000000  0   -4987502.511   2824186.212  -3829753.155
10 0 59836  30102.000000  0   -5279989.899   3214847.875  -3048946.253
10 0 59836  30222.000000  0   -5474079.264   3553740.970  -2214625.682
10 0 59836  30342.000000  0   -5567267.794   3833155.027  -1341397.222
10 0 59836  30462.000000  0   -5558946.550   4046388.118   -444582.824
10 0 59836  30582.000000  0   -5450400.899   4187904.102    460052.682
10 0 59836  30702.000000  0   -5244772.768   4253468.552   1356587.165
10 0 59836  30822.000000  0   -4946983.449   4240257.666   2229231.040
10 0 59836  30942.000000  0   -4563620.730   4146938.704   3062613.740
10 0 59836  31062.000000  0   -4102793.522   3973721.136   3842062.025
10 0 59836  31182.000000  0   -3573957.162   3722374.778   4553863.822
10 0 59836  31302.000000  0   -2987714.966   3396216.316   5185511.835
10 0 59836  31422.000000  0   -2355599.795   3000064.377   5725922.967
10 0 59836  31542.000000  0   -1689841.905   2540164.820   6165629.662
10 0 59836  31662.000000  0   -1003127.472   2024087.722   6496940.413
10 0 59836  31782.000000  0    -308354.817   1460598.720   6714066.231
10 0 59836  31902.000000  0     381607.279    859508.010   6813216.459
10 0 59836  32022.000000  0    1054157.704    231498.639   6792660.465
10 0 59836  32142.000000  0    1697191.897   -412062.616   6652755.861
10 0 59836  32262.000000  0    2299318.905  -1059330.387   6395943.436
10 0 59836  32382.000000  0    2850063.190  -1698197.895   6026707.693
10 0 59836  32502.000000  0    3340049.306  -2316523.283   5551504.158
10 0 59836  32622.000000  0    3761164.880  -2902361.339   4978651.947
10 0 59836  32742.000000  0    4106699.417  -3444196.308   4318194.229
10 0 59836  32862.000000  0    4371456.204  -3931171.973   3581726.709
10 0 59836  32982.000000  0    4551834.918  -4353313.739   2782196.525
10 0 59836  33102.000000  0    4645883.104  -4701737.416   1933673.887
10 0 59836  33222.000000  0    4653313.848  -4968838.817   1051100.441
10 0 59836  33342.000000  0    4575489.089  -5148460.399    150019.981
10 0 59836  33462.000000  0    4415368.964  -5236029.639   -753702.845
10 0 59836  33582.000000  0    4177430.255  -5228666.690  -1644170.556
10 0 59836  33702.000000  0    3867552.852  -5125257.105  -2505741.378
10 0 59836  33822.000000  0    3492879.340  -4926488.643  -3323310.340
10 0 59836  33942.000000  0    3061651.051  -4634851.217  -4082577.691
10 0 59836  34062.000000  0    2583025.351  -4254601.994  -4770299.134
10 0 59836  34182.000000  0    2066878.571  -3791694.898  -5374513.191
10 0 59836  34302.000000  0    1523600.791  -3253678.356  -5884740.186
10 0 59836  34422.000000  0     963887.017  -2649566.227  -6292153.691
10 0 59836  34542.000000  0     398527.571  -1989682.374  -6589723.034
10 0 59836  34662.000000  0    -161797.551  -1285481.330  -6772323.852
10 0 59836  34782.000000  0    -706715.729   -549349.639  -6836816.533
10 0 59836  34902.000000  0   -1226348.447    205608.573  -6782093.795
10 0 59836  35022.000000  0   -1711486.339    965799.060  -6609096.908
10 0 59836  35142.000000  0   -2153748.518   1717376.017  -6320801.199
10 0 59836  35262.000000  0   -2545724.488   2446487.885  -5922170.592
10 0 59836  35382.000000  0   -2881098.284   3139528.305  -5420082.093
10 0 59836  35502.000000  0   -3154751.691   3783388.690  -4823218.692
10 0 59836  35622.000000  0   -3362846.043   4365708.146  -4141930.648
10 0 59836  35742.000000  0   -3502878.804   4875114.991  -3388064.839
10 0 59836  35862.000000  0   -3573713.151   5301453.738  -2574766.229
10 0 59836  35982.000000  0   -3575582.055   5635994.784  -1716254.807
10 0 59836  36102.000000  0   -3510064.950   5871622.011   -827578.290
10 0 59836  36222.000000  0   -3380035.651   6002990.697     75655.153
10 0 59836  36342.000000  0   -3189585.286   6026651.565    977556.149
10 0 59836  36462.000000  0   -2943919.341   5941138.971   1862243.707
10 0 59836  36582.000000  0   -2649229.461   5747017.143   2714135.636
10 0 59836  36702.000000  0   -2312546.242   5446883.757   3518231.232
10 0 59836  36822.000000  0   -1941577.484   5045333.335   4260380.846
10 0 59836  36942.000000  0   -1544535.450   4548881.213   4927538.164
10 0 59836  37062.000000  0   -1129956.606   3965850.407   5507990.563
10 0 59836  37182.000000  0    -706518.884   3306223.194   5991562.198
10 0 59836  37302.000000  0    -282861.492   2581462.030   6369787.660
10 0 59836  37422.000000  0     132589.882   1804304.386   6636053.663
10 0 59836  37542.000000  0     531789.278    988535.360   6785709.324
10 0 59836  37662.000000  0     907225.198    148740.859   6816141.632
10 0 59836  37782.000000  0    1252060.715   -699952.100   6726818.101
10 0 59836  37902.000000  0    1560257.431  -1542147.430   6519296.514
10 0 59836  38022.000000  0    1826681.457  -2362458.559   6197199.648
10 0 59836  38142.000000  0    2047189.585  -3145790.290   5766156.651
10 0 59836  38262.000000  0    2218694.468  -3877619.051   5233709.862
10 0 59836  38382.000000  0    2339207.163  -4544265.598   4609188.004
10 0 59836  38502.000000  0    2407857.377  -5133156.115   3903548.680
10 0 59836  38622.000000  0    2424891.174  -5633067.656   3129189.474
10 0 59836  38742.000000  0    2391643.185  -6034350.966   2299730.748
10 0 59836  38862.000000  0    2310485.892  -6329124.534   1429773.396
10 0 59836  38982.000000  0    2184757.445  -6511434.783    534637.781
10 0 59836  39102.000000  0    2018668.748  -6577381.737   -369911.981
10 0 59836  39222.000000  0    1817192.559  -6525204.208  -1267955.544
10 0 59836  39342.000000  0    1585934.748  -6355318.994  -2143706.819
10 0 59836  39462.000000  0    1330993.813  -6070317.335  -2981798.536
99
